ONEWEB-0300             
1 49089U 21075Q   23059.48025872  .00000674  00000+0  18369-2 0  9995
2 49089  87.8940 229.9742 0001657  88.4539 271.6780 13.12439541 77186
ONEWEB-0300             
1 49089U 21075Q   23059.48025872  .00000674  00000+0  18369-2 0  9995
2 49089  87.8940 229.9742 0001657  88.4539 271.6780 13.12439541 78176
ONEWEB-0300             
1 49089U 21075Q   23059.86144613  .00000784  00000+0  21430-2 0  9997
2 49089  87.8940 229.8985 0001665  88.2695 271.8625 13.12439722 77231
ONEWEB-0300             
1 49089U 21075Q   23060.70005671  .00000858  00000+0  23490-2 0  9992
2 49089  87.8941 229.7319 0001660  87.8457 272.2862 13.12441479 78330
ONEWEB-0300             
1 49089U 21075Q   23060.85253228  .00000688  00000+0  18763-2 0  9999
2 49089  87.8942 229.7016 0001631  87.7198 272.4117 13.12441057 77363
ONEWEB-0300             
1 49089U 21075Q   23061.76737726  .00000402  00000+0  10818-2 0  9997
2 49089  87.8943 229.5199 0001618  87.2027 272.9286 13.12444855 77489
ONEWEB-0300             
1 49089U 21075Q   23062.37727386  .00000497  00000+0  13457-2 0  9992
2 49089  87.8946 229.3988 0001587  86.8134 273.3177 13.12445202 78555
ONEWEB-0300             
1 49089U 21075Q   23062.45351083  .00000496  00000+0  13430-2 0  9998
2 49089  87.8946 229.3836 0001593  86.8105 273.3206 13.12445428 77576
ONEWEB-0300             
1 49089U 21075Q   23062.83469682  .00000399  00000+0  10730-2 0  9997
2 49089  87.8948 229.3080 0001576  86.9292 273.2016 13.12445111 77621
